start=new Date('2022-06-09T00:00:00.000Z').valueOf();
sats=[{"MEAN_ANOMALY":"302.1520","PERIAPSIS":"545.859","MEAN_MOTION":"15.06402688","ECCENTRICITY":"0.00019440","TIME_SYSTEM":"UTC","NORAD_CAT_ID":"47360","CENTER_NAME":"EARTH","TLE_LINE2":"2 47360  53.0565  59.2866 0001944  57.9658 302.1520 15.06402688 76961","GP_ID":"205633957","SITE":"AFETR","EPHEMERIS_TYPE":"0","LAUNCH_DATE":"2021-01-20","INCLINATION":"53.0565","OBJECT_TYPE":"PAYLOAD","REF_FRAME":"TEME","DECAY_DATE":null,"REV_AT_EPOCH":"7696","OBJECT_ID":"2021-005M","ARG_OF_PERICENTER":"57.9658","PERIOD":"95.592","FILE":"3485745","COUNTRY_CODE":"US","CLASSIFICATION_TYPE":"U","TLE_LINE1":"1 47360U 21005M   22159.13633129 -.00000237  00000-0  30148-5 0  9999","MEAN_MOTION_DDOT":"0.0000000000000","ELEMENT_SET_NO":"999","RCS_SIZE":"LARGE","SEMIMAJOR_AXIS":"6925.340","EPOCH":"2022-06-08T03:16:19.023456","RA_OF_ASC_NODE":"59.2866","MEAN_MOTION_DOT":"-0.00000237","MEAN_ELEMENT_THEORY":"SGP4","APOAPSIS":"548.552","OBJECT_NAME":"STARLINK-2070","BSTAR":"0.00000301480000"},{"COUNTRY_CODE":"US","FILE":"3485745","PERIOD":"95.592","ARG_OF_PERICENTER":"65.3012","CLASSIFICATION_TYPE":"U","REV_AT_EPOCH":"7693","DECAY_DATE":null,"REF_FRAME":"TEME","OBJECT_ID":"2021-005N","APOAPSIS":"548.468","MEAN_ELEMENT_THEORY":"SGP4","BSTAR":"-0.00002111200000","OBJECT_NAME":"STARLINK-2071","TLE_LINE1":"1 47361U 21005N   22159.45838832 -.00000596  00000-0 -21112-4 0  9992","SEMIMAJOR_AXIS":"6925.341","RCS_SIZE":"LARGE","RA_OF_ASC_NODE":"62.8341","EPOCH":"2022-06-08T11:00:04.750848","MEAN_MOTION_DOT":"-0.00000596","ELEMENT_SET_NO":"999","MEAN_MOTION_DDOT":"0.0000000000000","TIME_SYSTEM":"UTC","NORAD_CAT_ID":"47361","MEAN_ANOMALY":"294.8166","PERIAPSIS":"545.943","ECCENTRICITY":"0.00018230","MEAN_MOTION":"15.06402620","LAUNCH_DATE":"2021-01-20","EPHEMERIS_TYPE":"0","OBJECT_TYPE":"PAYLOAD","INCLINATION":"53.0577","TLE_LINE2":"2 47361  53.0577  62.8341 0001823  65.3012 294.8166 15.06402620 76932","CENTER_NAME":"EARTH","SITE":"AFETR","GP_ID":"205633707"},{"PERIAPSIS":"545.878","MEAN_ANOMALY":"298.7432","ECCENTRICITY":"0.00019060","MEAN_MOTION":"15.06404937","TIME_SYSTEM":"UTC","NORAD_CAT_ID":"47362","TLE_LINE2":"2 47362  53.0554  92.6245 0001906  61.3749 298.7432 15.06404937 76524","CENTER_NAME":"EARTH","SITE":"AFETR","GP_ID":"205634958","LAUNCH_DATE":"2021-01-20","EPHEMERIS_TYPE":"0","OBJECT_TYPE":"PAYLOAD","INCLINATION":"53.0554","REV_AT_EPOCH":"7652","REF_FRAME":"TEME","DECAY_DATE":null,"OBJECT_ID":"2021-005P","COUNTRY_CODE":"US","FILE":"3485745","ARG_OF_PERICENTER":"61.3749","PERIOD":"95.592","CLASSIFICATION_TYPE":"U","TLE_LINE1":"1 47362U 21005P   22159.50353596  .00000622  00000-0  60683-4 0  9992","RCS_SIZE":"LARGE","SEMIMAJOR_AXIS":"6925.333","RA_OF_ASC_NODE":"92.6245","EPOCH":"2022-06-08T12:05:05.506944","MEAN_MOTION_DOT":"0.00000622","ELEMENT_SET_NO":"999","MEAN_MOTION_DDOT":"0.0000000000000","APOAPSIS":"548.518","MEAN_ELEMENT_THEORY":"SGP4","BSTAR":"0.00006068300000","OBJECT_NAME":"STARLINK-2076"},{"INCLINATION":"53.0550","OBJECT_TYPE":"PAYLOAD","EPHEMERIS_TYPE":"0","LAUNCH_DATE":"2021-01-20","GP_ID":"205634706","SITE":"AFETR","CENTER_NAME":"EARTH","TLE_LINE2":"2 47363  53.0550  92.5930 0002161  56.3778 303.7417 15.06402601 76527","NORAD_CAT_ID":"47363","TIME_SYSTEM":"UTC","MEAN_MOTION":"15.06402601","ECCENTRICITY":"0.00021610","MEAN_ANOMALY":"303.7417","PERIAPSIS":"545.709","OBJECT_NAME":"STARLINK-2077","BSTAR":"-0.00003548600000","MEAN_ELEMENT_THEORY":"SGP4","APOAPSIS":"548.702","MEAN_MOTION_DDOT":"0.0000000000000","ELEMENT_SET_NO":"999","RCS_SIZE":"LARGE","SEMIMAJOR_AXIS":"6925.341","RA_OF_ASC_NODE":"92.5930","EPOCH":"2022-06-08T12:10:24.078432","MEAN_MOTION_DOT":"-0.00000810","TLE_LINE1":"1 47363U 21005Q   22159.50722313 -.00000810  00000-0 -35486-4 0  9994","CLASSIFICATION_TYPE":"U","PERIOD":"95.592","ARG_OF_PERICENTER":"56.3778","FILE":"3485745","COUNTRY_CODE":"US","OBJECT_ID":"2021-005Q","DECAY_DATE":null,"REF_FRAME":"TEME","REV_AT_EPOCH":"7652"},{"CLASSIFICATION_TYPE":"U","COUNTRY_CODE":"US","FILE":"3485745","ARG_OF_PERICENTER":"0.7953","PERIOD":"90.893","OBJECT_ID":"2021-005S","REV_AT_EPOCH":"7957","REF_FRAME":"TEME","DECAY_DATE":null,"BSTAR":"0.00054571000000","OBJECT_NAME":"STARLINK-2080","APOAPSIS":"328.400","MEAN_ELEMENT_THEORY":"SGP4","RCS_SIZE":"LARGE","SEMIMAJOR_AXIS":"6696.495","EPOCH":"2022-06-08T10:53:28.720896","RA_OF_ASC_NODE":"233.9162","MEAN_MOTION_DOT":"0.00128545","ELEMENT_SET_NO":"999","MEAN_MOTION_DDOT":"0.0000000000000","TLE_LINE1":"1 47365U 21005S   22159.45380464  .00128545  00000-0  54571-3 0  9996","NORAD_CAT_ID":"47365","TIME_SYSTEM":"UTC","ECCENTRICITY":"0.00149930","MEAN_MOTION":"15.84278124","PERIAPSIS":"308.320","MEAN_ANOMALY":"359.3091","OBJECT_TYPE":"PAYLOAD","INCLINATION":"53.0279","EPHEMERIS_TYPE":"0","LAUNCH_DATE":"2021-01-20","SITE":"AFETR","GP_ID":"205633457","TLE_LINE2":"2 47365  53.0279 233.9162 0014993   0.7953 359.3091 15.84278124 79579","CENTER_NAME":"EARTH"},{"MEAN_ELEMENT_THEORY":"SGP4","APOAPSIS":"548.650","BSTAR":"0.00008733600000","OBJECT_NAME":"STARLINK-2081","TLE_LINE1":"1 47366U 21005T   22159.53302540  .00001020  00000-0  87336-4 0  9999","ELEMENT_SET_NO":"999","RCS_SIZE":"LARGE","SEMIMAJOR_AXIS":"6925.325","EPOCH":"2022-06-08T12:47:33.394560","MEAN_MOTION_DOT":"0.00001020","RA_OF_ASC_NODE":"92.4953","MEAN_MOTION_DDOT":"0.0000000000000","COUNTRY_CODE":"US","PERIOD":"95.592","ARG_OF_PERICENTER":"63.8677","FILE":"3485745","CLASSIFICATION_TYPE":"U","REV_AT_EPOCH":"7652","DECAY_DATE":null,"REF_FRAME":"TEME","OBJECT_ID":"2021-005T","EPHEMERIS_TYPE":"0","LAUNCH_DATE":"2021-01-20","OBJECT_TYPE":"PAYLOAD","INCLINATION":"53.0556","TLE_LINE2":"2 47366  53.0556  92.4953 0002109  63.8677 296.2528 15.06407798 76524","CENTER_NAME":"EARTH","SITE":"AFETR","GP_ID":"205634207","TIME_SYSTEM":"UTC","NORAD_CAT_ID":"47366","MEAN_ANOMALY":"296.2528","PERIAPSIS":"545.729","ECCENTRICITY":"0.00021090","MEAN_MOTION":"15.06407798"},{"OBJECT_ID":"2021-005U","REV_AT_EPOCH":"7648","REF_FRAME":"TEME","DECAY_DATE":null,"CLASSIFICATION_TYPE":"U","COUNTRY_CODE":"US","FILE":"3485745","PERIOD":"95.592","ARG_OF_PERICENTER":"52.9341","RCS_SIZE":"LARGE","SEMIMAJOR_AXIS":"6925.330","RA_OF_ASC_NODE":"93.8684","EPOCH":"2022-06-08T05:27:00.991584","MEAN_MOTION_DOT":"0.00000726","ELEMENT_SET_NO":"999","MEAN_MOTION_DDOT":"0.0000000000000","TLE_LINE1":"1 47367U 21005U   22159.22709481  .00000726  00000-0  67640-4 0  9999","BSTAR":"0.00006764000000","OBJECT_NAME":"STARLINK-2082","APOAPSIS":"548.974","MEAN_ELEMENT_THEORY":"SGP4","ECCENTRICITY":"0.00025700","MEAN_MOTION":"15.06406213","PERIAPSIS":"545.415","MEAN_ANOMALY":"307.1882","NORAD_CAT_ID":"47367","TIME_SYSTEM":"UTC","SITE":"AFETR","GP_ID":"205634458","TLE_LINE2":"2 47367  53.0539  93.8684 0002570  52.9341 307.1882 15.06406213 76482","CENTER_NAME":"EARTH","OBJECT_TYPE":"PAYLOAD","INCLINATION":"53.0539","EPHEMERIS_TYPE":"0","LAUNCH_DATE":"2021-01-20"},{"CENTER_NAME":"EARTH","TLE_LINE2":"2 47368  53.0560  92.4007 0001978  60.9137 299.2050 15.06400358 76532","GP_ID":"205635207","SITE":"AFETR","EPHEMERIS_TYPE":"0","LAUNCH_DATE":"2021-01-20","INCLINATION":"53.0560","OBJECT_TYPE":"PAYLOAD","MEAN_ANOMALY":"299.2050","PERIAPSIS":"545.843","MEAN_MOTION":"15.06400358","ECCENTRICITY":"0.00019780","TIME_SYSTEM":"UTC","NORAD_CAT_ID":"47368","TLE_LINE1":"1 47368U 21005V   22159.55146507 -.00000973  00000-0 -46398-4 0  9993","MEAN_MOTION_DDOT":"0.0000000000000","ELEMENT_SET_NO":"999","SEMIMAJOR_AXIS":"6925.347","RCS_SIZE":"LARGE","EPOCH":"2022-06-08T13:14:06.582048","RA_OF_ASC_NODE":"92.4007","MEAN_MOTION_DOT":"-0.00000973","MEAN_ELEMENT_THEORY":"SGP4","APOAPSIS":"548.582","OBJECT_NAME":"STARLINK-2084","BSTAR":"-0.00004639800000","DECAY_DATE":null,"REF_FRAME":"TEME","REV_AT_EPOCH":"7653","OBJECT_ID":"2021-005V","PERIOD":"95.592","ARG_OF_PERICENTER":"60.9137","FILE":"3485745","COUNTRY_CODE":"US","CLASSIFICATION_TYPE":"U"},{"CLASSIFICATION_TYPE":"U","COUNTRY_CODE":"US","FILE":"3485745","ARG_OF_PERICENTER":"51.2687","PERIOD":"95.592","OBJECT_ID":"2021-005W","REV_AT_EPOCH":"7680","DECAY_DATE":null,"REF_FRAME":"TEME","BSTAR":"0.00000385620000","OBJECT_NAME":"STARLINK-2085","APOAPSIS":"548.552","MEAN_ELEMENT_THEORY":"SGP4","EPOCH":"2022-06-08T11:46:31.490400","RCS_SIZE":"LARGE","SEMIMAJOR_AXIS":"6925.354","RA_OF_ASC_NODE":"72.6888","MEAN_MOTION_DOT":"-0.00000224","ELEMENT_SET_NO":"999","MEAN_MOTION_DDOT":"0.0000000000000","TLE_LINE1":"1 47369U 21005W   22159.49064225 -.00000224  00000-0  38562-5 0  9996","NORAD_CAT_ID":"47369","TIME_SYSTEM":"UTC","ECCENTRICITY":"0.00019250","MEAN_MOTION":"15.06398215","MEAN_ANOMALY":"308.8474","PERIAPSIS":"545.886","OBJECT_TYPE":"PAYLOAD","INCLINATION":"53.0534","EPHEMERIS_TYPE":"0","LAUNCH_DATE":"2021-01-20","SITE":"AFETR","GP_ID":"205633958","TLE_LINE2":"2 47369  53.0534  72.6888 0001925  51.2687 308.8474 15.06398215 76801","CENTER_NAME":"EARTH"},{"OBJECT_TYPE":"PAYLOAD","INCLINATION":"53.0567","EPHEMERIS_TYPE":"0","LAUNCH_DATE":"2021-01-20","SITE":"AFETR","GP_ID":"205644097","TLE_LINE2":"2 47370  53.0567  51.6870 0003019  59.6370 300.4918 15.06400260 77125","CENTER_NAME":"EARTH","NORAD_CAT_ID":"47370","TIME_SYSTEM":"UTC","ECCENTRICITY":"0.00030190","MEAN_MOTION":"15.06400260","PERIAPSIS":"545.122","MEAN_ANOMALY":"300.4918","BSTAR":"0.00010807000000","OBJECT_NAME":"STARLINK-2086","MEAN_ELEMENT_THEORY":"SGP4","APOAPSIS":"549.304","ELEMENT_SET_NO":"999","MEAN_MOTION_DOT":"0.00001328","RCS_SIZE":"LARGE","SEMIMAJOR_AXIS":"6925.348","EPOCH":"2022-06-08T17:07:38.547840","RA_OF_ASC_NODE":"51.6870","MEAN_MOTION_DDOT":"0.0000000000000","TLE_LINE1":"1 47370U 21005X   22159.71364060  .00001328  00000-0  10807-3 0  9998","CLASSIFICATION_TYPE":"U","COUNTRY_CODE":"US","ARG_OF_PERICENTER":"59.6370","PERIOD":"95.592","FILE":"3486180","OBJECT_ID":"2021-005X","REV_AT_EPOCH":"7712","DECAY_DATE":null,"REF_FRAME":"TEME"}];
